NORAD_CAT_ID,OBJECT_NAME,OBJECT_TYPE,EPOCH,MEAN_MOTION,ECCENTRICITY,INCLINATION,RA_OF_ASC_NODE,ARG_OF_PERICENTER,MEAN_ANOMALY,BSTAR,MEAN_MOTION_DOT,MEAN_MOTION_DDOT,TLE_LINE0,TLE_LINE1,TLE_LINE2,SEMIMAJOR_AXIS,PERIOD,APOGEE,PERIGEE,DECAYED
49426.0,STARLINK-3114,PAYLOAD,2023-08-07 02:31:52,15.0883165,0.0001287,53.2166,154.0122,96.826,263.2879,-0.00010876,-2.018e-05,0.0,0 STARLINK-3114,1 49426U 21104U   23219.10547264 -.00002018  00000-0 -10876-3 0  9997,2 49426  53.2166 154.0122 0001287  96.8260 263.2879 15.08831650 96968,6917.906,95.438,540.661,538.881,0.0
49426.0,STARLINK-3114,PAYLOAD,2023-08-07 20:01:06,15.08845873,0.0001103,53.2163,150.7434,95.5441,264.5677,-1.0585e-05,-4.56e-06,0.0,0 STARLINK-3114,1 49426U 21104U   23219.83410290 -.00000456  00000-0 -10585-4 0  9997,2 49426  53.2163 150.7434 0001103  95.5441 264.5677 15.08845873 97073,6917.862,95.437,540.49,538.964,0.0
49426.0,STARLINK-3114,PAYLOAD,2023-08-08 02:22:38,15.08856484,0.0001093,53.2159,149.5544,94.764,265.3477,8.8586e-05,1.123e-05,0.0,0 STARLINK-3114,1 49426U 21104U   23220.09905275  .00001123  00000-0  88586-4 0  9995,2 49426  53.2159 149.5544 0001093  94.7640 265.3477 15.08856484 97118,6917.83,95.437,540.451,538.939,0.0
49426.0,STARLINK-3114,PAYLOAD,2023-08-08 11:54:57,15.08850553,0.0001219,53.2158,147.7688,93.2105,266.9026,0.00014961,2.095e-05,0.0,0 STARLINK-3114,1 49426U 21104U   23220.49649579  .00002095  00000-0  14961-3 0  9995,2 49426  53.2158 147.7688 0001219  93.2105 266.9026 15.08850553 97170,6917.848,95.437,540.556,538.87,0.0
49426.0,STARLINK-3114,PAYLOAD,2023-08-09 02:13:26,15.08846698,0.0002019,53.2158,145.0929,82.8231,277.2991,0.00025382,3.754e-05,0.0,0 STARLINK-3114,1 49426U 21104U   23221.09266309  .00003754  00000-0  25382-3 0  9990,2 49426  53.2158 145.0929 0002019  82.8231 277.2991 15.08846698 97263,6917.86,95.437,541.122,538.328,0.0
49426.0,STARLINK-3114,PAYLOAD,2023-08-09 03:48:49,15.08835376,0.0001667,53.2157,144.7957,87.3292,272.7891,7.9975e-05,9.85e-06,0.0,0 STARLINK-3114,1 49426U 21104U   23221.15890860  .00000985  00000-0  79975-4 0  9993,2 49426  53.2157 144.7957 0001667  87.3292 272.7891 15.08835376 97275,6917.895,95.438,540.913,538.606,0.0
49426.0,STARLINK-3114,PAYLOAD,2023-08-10 05:14:59,15.08838971,0.0001637,53.2143,140.0371,80.3619,279.7558,-8.3853e-05,-1.622e-05,0.0,0 STARLINK-3114,1 49426U 21104U   23222.21874737 -.00001622  00000-0 -83853-4 0  9997,2 49426  53.2143 140.0371 0001637  80.3619 279.7558 15.08838971 97431,6917.884,95.438,540.881,538.616,0.0
49426.0,STARLINK-3114,PAYLOAD,2023-08-10 19:33:28,15.08831264,0.0001599,53.2125,137.3605,81.2241,278.8933,6.4185e-05,7.33e-06,0.0,0 STARLINK-3114,1 49426U 21104U   23222.81491612  .00000733  00000-0  64185-4 0  9997,2 49426  53.2125 137.3605 0001599  81.2241 278.8933 15.08831264 97523,6917.907,95.438,540.878,538.666,0.0
49426.0,STARLINK-3114,PAYLOAD,2023-08-12 00:10:24,15.08844849,0.0001301,53.215,132.011,80.1803,279.9336,-5.6382e-06,-3.78e-06,0.0,0 STARLINK-3114,1 49426U 21104U   23224.00723345 -.00000378  00000-0 -56382-5 0  9999,2 49426  53.2150 132.0110 0001301  80.1803 279.9336 15.08844849 97709,6917.866,95.437,540.631,538.831,0.0
49426.0,STARLINK-3114,PAYLOAD,2023-08-13 03:11:57,15.08850867,0.0001234,53.2165,126.9545,89.1645,270.9488,0.00010883,1.445e-05,0.0,0 STARLINK-3114,1 49426U 21104U   23225.13330453  .00001445  00000-0  10883-3 0  9996,2 49426  53.2165 126.9545 0001234  89.1645 270.9488 15.08850867 97871,6917.847,95.437,540.566,538.859,0.0
49426.0,STARLINK-3114,PAYLOAD,2023-08-14 03:02:45,15.08844357,0.0001378,53.2165,122.4935,87.7467,272.3683,2.2405e-05,6.9e-07,0.0,0 STARLINK-3114,1 49426U 21104U   23226.12690992  .00000069  00000-0  22405-4 0  9998,2 49426  53.2165 122.4935 0001378  87.7467 272.3683 15.08844357 98028,6917.867,95.437,540.685,538.779,0.0
49426.0,STARLINK-3114,PAYLOAD,2023-08-15 02:53:32,15.08840686,0.0001558,53.2165,118.0323,91.281,268.836,3.5364e-05,2.75e-06,0.0,0 STARLINK-3114,1 49426U 21104U   23227.12051145  .00000275  00000-0  35364-4 0  9997,2 49426  53.2165 118.0323 0001558  91.2810 268.8360 15.08840686 98171,6917.878,95.438,540.821,538.665,0.0
49426.0,STARLINK-3114,PAYLOAD,2023-08-16 17:02:48,15.0883811,0.0001456,53.2158,110.897,89.2821,270.8338,-7.0246e-06,-4e-06,0.0,0 STARLINK-3114,1 49426U 21104U   23228.71027879 -.00000400  00000-0 -70246-5 0  9991,2 49426  53.2158 110.8970 0001456  89.2821 270.8338 15.08838110 98411,6917.886,95.438,540.758,538.744,0.0
49426.0,STARLINK-3114,PAYLOAD,2023-08-17 00:59:42,15.08866602,0.0001328,53.2167,109.41,97.5646,262.5497,-0.00017821,-3.125e-05,0.0,0 STARLINK-3114,1 49426U 21104U   23229.04146581 -.00003125  00000-0 -17821-3 0  9995,2 49426  53.2167 109.4100 0001328  97.5646 262.5497 15.08866602 98461,6917.799,95.436,540.583,538.745,0.0
49426.0,STARLINK-3114,PAYLOAD,2023-08-17 18:28:58,15.08838571,0.0001614,53.2183,106.1405,98.75,261.3675,4.9475e-05,4.99e-06,0.0,0 STARLINK-3114,1 49426U 21104U   23229.77011675  .00000499  00000-0  49475-4 0  9990,2 49426  53.2183 106.1405 0001614  98.7500 261.3675 15.08838571 98572,6917.885,95.438,540.866,538.633,0.0
49426.0,STARLINK-3114,PAYLOAD,2023-08-18 02:25:53,15.08845793,0.0001429,53.2163,104.6524,85.3575,274.758,0.00010156,1.329e-05,0.0,0 STARLINK-3114,1 49426U 21104U   23230.10131065  .00001329  00000-0  10156-3 0  9991,2 49426  53.2163 104.6524 0001429  85.3575 274.7580 15.08845793 98626,6917.863,95.437,540.716,538.739,0.0
49426.0,STARLINK-3114,PAYLOAD,2023-08-18 18:19:45,15.08835666,0.0001314,53.2176,101.6785,97.4634,262.6508,-4.6323e-05,-1.025e-05,0.0,0 STARLINK-3114,1 49426U 21104U   23230.76372195 -.00001025  00000-0 -46323-4 0  9995,2 49426  53.2176 101.6785 0001314  97.4634 262.6508 15.08835666 98724,6917.894,95.438,540.668,538.85,0.0
49426.0,STARLINK-3114,PAYLOAD,2023-08-19 00:41:17,15.08842186,0.0001423,53.2173,100.4896,87.0361,273.0794,2.499e-05,1.1e-06,0.0,0 STARLINK-3114,1 49426U 21104U   23231.02867683  .00000110  00000-0  24990-4 0  9994,2 49426  53.2173 100.4896 0001423  87.0361 273.0794 15.08842186 98766,6917.874,95.437,540.723,538.754,0.0
49426.0,STARLINK-3114,PAYLOAD,2023-08-20 18:01:19,15.08842356,0.0001347,53.2164,92.7595,77.7687,282.3456,6.6148e-05,7.65e-06,0.0,0 STARLINK-3114,1 49426U 21104U   23232.75091767  .00000765  00000-0  66148-4 0  9994,2 49426  53.2164  92.7595 0001347  77.7687 282.3456 15.08842356 99024,6917.873,95.437,540.67,538.806,0.0
49426.0,STARLINK-3114,PAYLOAD,2023-08-21 00:22:51,15.08850784,0.0001233,53.2165,91.5668,95.1191,264.9942,0.00011704,1.576e-05,0.0,0 STARLINK-3114,1 49426U 21104U   23233.01586910  .00001576  00000-0  11704-3 0  9991,2 49426  53.2165  91.5668 0001233  95.1191 264.9942 15.08850784 99065,6917.847,95.437,540.565,538.859,0.0
49426.0,STARLINK-3114,PAYLOAD,2023-08-21 19:27:29,15.08835401,0.0001334,53.2172,87.9977,96.8238,263.2906,2.4131e-05,9.6e-07,0.0,0 STARLINK-3114,1 49426U 21104U   23233.81076318  .00000096  00000-0  24131-4 0  9990,2 49426  53.2172  87.9977 0001334  96.8238 263.2906 15.08835401 99181,6917.894,95.438,540.682,538.837,0.0
49426.0,STARLINK-3114,PAYLOAD,2023-08-23 00:04:25,15.08848554,0.0001325,53.2178,82.6457,94.6804,265.4339,9.7086e-05,1.258e-05,0.0,0 STARLINK-3114,1 49426U 21104U   23235.00307423  .00001258  00000-0  97086-4 0  9997,2 49426  53.2178  82.6457 0001325  94.6804 265.4339 15.08848554 99364,6917.854,95.437,540.636,538.803,0.0
49426.0,STARLINK-3114,PAYLOAD,2023-08-23 23:55:13,15.08842521,0.0001237,53.2163,78.1865,85.0958,275.0175,0.00014079,1.954e-05,0.0,0 STARLINK-3114,1 49426U 21104U   23235.99668120  .00001954  00000-0  14079-3 0  9992,2 49426  53.2163  78.1865 0001237  85.0958 275.0175 15.08842521 98426,6917.873,95.437,540.593,538.882,0.0
49426.0,STARLINK-3114,PAYLOAD,2023-08-24 23:46:00,15.08840579,0.0001075,53.2162,73.7256,86.0583,274.0532,3.0841e-06,-2.39e-06,0.0,0 STARLINK-3114,1 49426U 21104U   23236.99028215 -.00000239  00000-0  30841-5 0  9991,2 49426  53.2162  73.7256 0001075  86.0583 274.0532 15.08840579 99669,6917.879,95.438,540.487,539.0,0.0
49426.0,STARLINK-3114,PAYLOAD,2023-08-25 22:01:24,15.08841759,0.0001179,53.2171,69.5625,85.0021,275.1106,8.8596e-05,1.123e-05,0.0,0 STARLINK-3114,1 49426U 21104U   23237.91764627  .00001123  00000-0  88596-4 0  9999,2 49426  53.2171  69.5625 0001179  85.0021 275.1106 15.08841759 98718,6917.875,95.437,540.556,538.924,0.0
49426.0,STARLINK-3114,PAYLOAD,2023-08-25 23:36:47,15.08843437,0.000117,53.2171,69.2646,86.4595,273.6531,9.6976e-05,1.256e-05,0.0,0 STARLINK-3114,1 49426U 21104U   23237.98388472  .00001256  00000-0  96976-4 0  9994,2 49426  53.2171  69.2646 0001170  86.4595 273.6531 15.08843437 98721,6917.87,95.437,540.544,538.925,0.0
49426.0,STARLINK-3114,PAYLOAD,2023-08-26 17:06:02,15.08839261,0.0001416,53.2183,65.9925,77.3088,282.8063,0.00015029,2.105e-05,0.0,0 STARLINK-3114,1 49426U 21104U   23238.71252741  .00002105  00000-0  15029-3 0  9998,2 49426  53.2183  65.9925 0001416  77.3088 282.8063 15.08839261 99921,6917.883,95.438,540.727,538.768,0.0
49426.0,STARLINK-3114,PAYLOAD,2023-08-26 20:16:48,15.08842367,0.0001465,53.2182,65.4,73.4978,286.6175,0.0001708,2.432e-05,0.0,0 STARLINK-3114,1 49426U 21104U   23238.84500598  .00002432  00000-0  17080-3 0  9990,2 49426  53.2182  65.4000 0001465  73.4978 286.6175 15.08842367 98856,6917.873,95.437,540.752,538.725,0.0
49426.0,STARLINK-3114,PAYLOAD,2023-08-27 18:32:12,15.08842874,0.0001404,53.2177,61.2361,79.8697,280.2453,7.5378e-05,9.12e-06,0.0,0 STARLINK-3114,1 49426U 21104U   23239.77236846  .00000912  00000-0  75378-4 0  9991,2 49426  53.2177  61.2361 0001404  79.8697 280.2453 15.08842874 98992,6917.872,95.437,540.708,538.765,0.0
49426.0,STARLINK-3114,PAYLOAD,2023-08-27 23:18:21,15.0884584,0.0001401,53.2177,60.3437,80.7906,279.3244,9.7251e-05,1.26e-05,0.0,0 STARLINK-3114,1 49426U 21104U   23239.97108558  .00001260  00000-0  97251-4 0  9992,2 49426  53.2177  60.3437 0001401  80.7906 279.3244 15.08845840100118,6917.863,95.437,540.697,538.758,0.0
